[{"OBJECT_NAME":"SAUDISAT 1C (SO-50)","OBJECT_ID":"2002-058C","EPOCH":"2026-03-04T13:25:02.720928","MEAN_MOTION":14.82758712,"ECCENTRICITY":0.0075153,"INCLINATION":64.5519,"RA_OF_ASC_NODE":92.6406,"ARG_OF_PERICENTER":281.6341,"MEAN_ANOMALY":77.6337,"EPHEMERIS_TYPE":0,"CLASSIFICATION_TYPE":"U","NORAD_CAT_ID":27607,"ELEMENT_SET_NO":999,"REV_AT_EPOCH":24894,"BSTAR":0.00030977,"MEAN_MOTION_DOT":2.482e-5,"MEAN_MOTION_DDOT":0},{"OBJECT_NAME":"SAUDISAT 2","OBJECT_ID":"2004-025F","EPOCH":"2026-03-04T11:33:13.140576","MEAN_MOTION":14.56611381,"ECCENTRICITY":0.00235307,"INCLINATION":98.5495,"RA_OF_ASC_NODE":60.7724,"ARG_OF_PERICENTER":257.9132,"MEAN_ANOMALY":101.9428,"EPHEMERIS_TYPE":0,"CLASSIFICATION_TYPE":"U","NORAD_CAT_ID":28371,"ELEMENT_SET_NO":999,"REV_AT_EPOCH":15050,"BSTAR":0.00013530999,"MEAN_MOTION_DOT":5.56e-6,"MEAN_MOTION_DDOT":0},{"OBJECT_NAME":"SAUDISAT 3","OBJECT_ID":"2007-012B","EPOCH":"2026-03-04T11:09:29.709216","MEAN_MOTION":14.71348387,"ECCENTRICITY":0.00141856,"INCLINATION":98.1341,"RA_OF_ASC_NODE":13.8728,"ARG_OF_PERICENTER":195.6399,"MEAN_ANOMALY":164.4372,"EPHEMERIS_TYPE":0,"CLASSIFICATION_TYPE":"U","NORAD_CAT_ID":31118,"ELEMENT_SET_NO":999,"REV_AT_EPOCH":1234,"BSTAR":0.00010319142,"MEAN_MOTION_DOT":5.88e-6,"MEAN_MOTION_DDOT":0},{"OBJECT_NAME":"PISAT","OBJECT_ID":"2016-059B","EPOCH":"2026-03-04T12:16:27.621984","MEAN_MOTION":14.68758686,"ECCENTRICITY":0.0029129,"INCLINATION":97.8189,"RA_OF_ASC_NODE":68.4778,"ARG_OF_PERICENTER":177.1121,"MEAN_ANOMALY":183.0258,"EPHEMERIS_TYPE":0,"CLASSIFICATION_TYPE":"U","NORAD_CAT_ID":41784,"ELEMENT_SET_NO":999,"REV_AT_EPOCH":50437,"BSTAR":0.00026895,"MEAN_MOTION_DOT":1.531e-5,"MEAN_MOTION_DDOT":0},{"OBJECT_NAME":"FLYING LAPTOP","OBJECT_ID":"2017-042G","EPOCH":"2026-03-04T20:14:16.645344","MEAN_MOTION":15.00479867,"ECCENTRICITY":0.0018665,"INCLINATION":97.4254,"RA_OF_ASC_NODE":223.7338,"ARG_OF_PERICENTER":111.1672,"MEAN_ANOMALY":249.1549,"EPHEMERIS_TYPE":0,"CLASSIFICATION_TYPE":"U","NORAD_CAT_ID":42831,"ELEMENT_SET_NO":999,"REV_AT_EPOCH":47080,"BSTAR":0.0004123,"MEAN_MOTION_DOT":5.155e-5,"MEAN_MOTION_DDOT":0},{"OBJECT_NAME":"SALSAT","OBJECT_ID":"2020-068K","EPOCH":"2026-03-04T12:00:02.662848","MEAN_MOTION":15.28060764,"ECCENTRICITY":0.00086882,"INCLINATION":97.8848,"RA_OF_ASC_NODE":60.3287,"ARG_OF_PERICENTER":318.7431,"MEAN_ANOMALY":41.3149,"EPHEMERIS_TYPE":0,"CLASSIFICATION_TYPE":"U","NORAD_CAT_ID":46495,"ELEMENT_SET_NO":999,"REV_AT_EPOCH":29936,"BSTAR":0.00053709432,"MEAN_MOTION_DOT":0.00014646,"MEAN_MOTION_DDOT":0}]
